NORAD_CAT_ID,OBJECT_NAME,OBJECT_TYPE,EPOCH,MEAN_MOTION,ECCENTRICITY,INCLINATION,RA_OF_ASC_NODE,ARG_OF_PERICENTER,MEAN_ANOMALY,BSTAR,MEAN_MOTION_DOT,MEAN_MOTION_DDOT,TLE_LINE0,TLE_LINE1,TLE_LINE2,SEMIMAJOR_AXIS,PERIOD,APOGEE,PERIGEE,DECAYED
49155.0,STARLINK-3060,PAYLOAD,2024-01-08 10:58:59,14.98335161,0.0003204,69.9992,89.4379,271.3095,88.7697,-9.3411e-05,-1.208e-05,0.0,0 STARLINK-3060,1 49155U 21082AB  24008.45763739 -.00001208  00000-0 -93411-4 0  9990,2 49155  69.9992  89.4379 0003204 271.3095  88.7697 14.98335161129521,6950.177,96.107,574.269,569.815,0.0
49155.0,STARLINK-3060,PAYLOAD,2024-01-08 14:11:15,14.98339188,0.0003181,69.9991,89.1013,270.7787,89.3008,-4.3315e-05,-6.1e-06,0.0,0 STARLINK-3060,1 49155U 21082AB  24008.59115308 -.00000610  00000-0 -43315-4 0  9992,2 49155  69.9991  89.1013 0003181 270.7787  89.3008 14.98339188129545,6950.164,96.106,574.24,569.819,0.0
49155.0,STARLINK-3060,PAYLOAD,2024-01-09 11:01:00,14.98328264,0.0002679,69.9994,86.9127,271.2512,88.834,8.6492e-05,9.39e-06,0.0,0 STARLINK-3060,1 49155U 21082AB  24009.45903714  .00000939  00000-0  86492-4 0  9999,2 49155  69.9994  86.9127 0002679 271.2512  88.8340 14.98328264129672,6950.198,96.107,573.925,570.201,0.0
49155.0,STARLINK-3060,PAYLOAD,2024-01-09 14:13:16,14.9832754,0.0002952,69.9997,86.5764,272.7039,87.3782,0.00016104,1.829e-05,0.0,0 STARLINK-3060,1 49155U 21082AB  24009.59255586  .00001829  00000-0  16104-3 0  9992,2 49155  69.9997  86.5764 0002952 272.7039  87.3782 14.98327540129694,6950.2,96.107,574.117,570.014,0.0
49155.0,STARLINK-3060,PAYLOAD,2024-01-10 11:03:01,14.98330228,0.0002884,69.9998,84.3881,267.002,93.0809,3.481e-05,3.22e-06,0.0,0 STARLINK-3060,1 49155U 21082AB  24010.46043724  .00000322  00000-0  34810-4 0  9991,2 49155  69.9998  84.3881 0002884 267.0020  93.0809 14.98330228129828,6950.192,96.107,574.062,570.053,0.0
49155.0,STARLINK-3060,PAYLOAD,2024-01-11 11:05:02,14.98330986,0.0003082,69.9993,81.8626,270.4608,89.6197,2.3939e-05,1.93e-06,0.0,0 STARLINK-3060,1 49155U 21082AB  24011.46183689  .00000193  00000-0  23939-4 0  9993,2 49155  69.9993  81.8626 0003082 270.4608  89.6197 14.98330986129971,6950.19,96.107,574.197,569.913,0.0
49155.0,STARLINK-3060,PAYLOAD,2024-01-11 14:17:18,14.98335157,0.0002905,69.9997,81.5264,267.2284,92.8543,6.661e-05,7.02e-06,0.0,0 STARLINK-3060,1 49155U 21082AB  24011.59535277  .00000702  00000-0  66610-4 0  9990,2 49155  69.9997  81.5264 0002905 267.2284  92.8543 14.98335157129995,6950.177,96.107,574.061,570.023,0.0
49155.0,STARLINK-3060,PAYLOAD,2024-01-12 11:07:03,14.98330401,0.0002862,69.9996,79.3381,265.4773,94.6059,4.8852e-05,4.9e-06,0.0,0 STARLINK-3060,1 49155U 21082AB  24012.46323540  .00000490  00000-0  48852-4 0  9997,2 49155  69.9996  79.3381 0002862 265.4773  94.6059 14.98330401130120,6950.192,96.107,574.046,570.068,0.0
49155.0,STARLINK-3060,PAYLOAD,2024-01-12 14:19:19,14.98332418,0.0002895,69.9995,79.0016,267.3122,92.7705,8.4082e-05,9.1e-06,0.0,0 STARLINK-3060,1 49155U 21082AB  24012.59675329  .00000910  00000-0  84082-4 0  9998,2 49155  69.9995  79.0016 0002895 267.3122  92.7705 14.98332418130145,6950.185,96.107,574.062,570.038,0.0
49155.0,STARLINK-3060,PAYLOAD,2024-01-13 11:09:04,14.9833038,0.0002797,69.9995,76.8133,262.5543,97.5299,1.5874e-05,9.6e-07,0.0,0 STARLINK-3060,1 49155U 21082AB  24013.46463620  .00000096  00000-0  15874-4 0  9992,2 49155  69.9995  76.8133 0002797 262.5543  97.5299 14.98330380130276,6950.192,96.107,574.001,570.113,0.0
49155.0,STARLINK-3060,PAYLOAD,2024-01-13 14:21:20,14.98332947,0.0002757,69.9997,76.4769,261.9509,98.1337,4.6978e-05,4.68e-06,0.0,0 STARLINK-3060,1 49155U 21082AB  24013.59815387  .00000468  00000-0  46978-4 0  9999,2 49155  69.9997  76.4769 0002757 261.9509  98.1337 14.98332947130293,6950.184,96.107,573.965,570.133,0.0
49155.0,STARLINK-3060,PAYLOAD,2024-01-14 11:11:05,14.98331915,0.0002595,69.9998,74.2885,259.0819,101.0048,7.1254e-05,7.57e-06,0.0,0 STARLINK-3060,1 49155U 21082AB  24014.46603323  .00000757  00000-0  71254-4 0  9997,2 49155  69.9998  74.2885 0002595 259.0819 101.0048 14.98331915130423,6950.187,96.107,573.856,570.248,0.0
49155.0,STARLINK-3060,PAYLOAD,2024-01-14 12:47:13,14.98333359,0.0002585,69.9999,74.1203,258.9222,101.1646,8.7154e-05,9.47e-06,0.0,0 STARLINK-3060,1 49155U 21082AB  24014.53279195  .00000947  00000-0  87154-4 0  9998,2 49155  69.9999  74.1203 0002585 258.9222 101.1646 14.98333359130432,6950.183,96.107,573.844,570.251,0.0
49155.0,STARLINK-3060,PAYLOAD,2024-01-15 11:13:06,14.98330392,0.0002569,70.0,71.7636,258.278,101.8091,5.9843e-05,6.21e-06,0.0,0 STARLINK-3060,1 49155U 21082AB  24015.46743387  .00000621  00000-0  59843-4 0  9993,2 49155  70.0000  71.7636 0002569 258.2780 101.8091 14.98330392130575,6950.192,96.107,573.842,570.271,0.0
49155.0,STARLINK-3060,PAYLOAD,2024-01-15 12:49:14,14.98330783,0.0002563,70.0,71.5954,258.2848,101.8024,6.21e-05,6.48e-06,0.0,0 STARLINK-3060,1 49155U 21082AB  24015.53419339  .00000648  00000-0  62100-4 0  9997,2 49155  70.0000  71.5954 0002563 258.2848 101.8024 14.98330783130586,6950.19,96.107,573.837,570.274,0.0
49155.0,STARLINK-3060,PAYLOAD,2024-01-16 11:15:07,14.98325156,0.0002505,70.0003,69.2386,257.588,102.4999,-3.9964e-05,-5.7e-06,0.0,0 STARLINK-3060,1 49155U 21082AB  24016.46884020 -.00000570  00000-0 -39964-4 0  9991,2 49155  70.0003  69.2386 0002505 257.5880 102.4999 14.98325156130728,6950.208,96.107,573.814,570.332,0.0
49155.0,STARLINK-3060,PAYLOAD,2024-01-16 12:51:15,14.98326547,0.0002637,69.9999,69.0695,267.9418,92.1439,-4.1009e-05,-5.82e-06,0.0,0 STARLINK-3060,1 49155U 21082AB  24016.53559974 -.00000582  00000-0 -41009-4 0  9992,2 49155  69.9999  69.0695 0002637 267.9418  92.1439 14.98326547130738,6950.204,96.107,573.901,570.236,0.0
49155.0,STARLINK-3060,PAYLOAD,2024-01-17 11:17:08,14.98333475,0.000278,69.9993,66.712,264.8684,95.2158,6.098e-05,6.35e-06,0.0,0 STARLINK-3060,1 49155U 21082AB  24017.47023278  .00000635  00000-0  60980-4 0  9995,2 49155  69.9993  66.7120 0002780 264.8684  95.2158 14.98333475130874,6950.182,96.107,573.979,570.115,0.0
49155.0,STARLINK-3060,PAYLOAD,2024-01-17 12:53:16,14.9833445,0.000278,69.9994,66.5439,264.9704,95.1138,7.0806e-05,7.52e-06,0.0,0 STARLINK-3060,1 49155U 21082AB  24017.53699193  .00000752  00000-0  70806-4 0  9995,2 49155  69.9994  66.5439 0002780 264.9704  95.1138 14.98334450130882,6950.179,96.107,573.976,570.112,0.0
49155.0,STARLINK-3060,PAYLOAD,2024-01-18 11:19:09,14.98326337,0.0002867,69.9995,64.1866,266.6118,93.4714,0.00015616,1.771e-05,0.0,0 STARLINK-3060,1 49155U 21082AB  24018.47163548  .00001771  00000-0  15616-3 0  9998,2 49155  69.9995  64.1866 0002867 266.6118  93.4714 14.98326337131028,6950.204,96.107,574.062,570.077,0.0
49155.0,STARLINK-3060,PAYLOAD,2024-01-18 12:55:17,14.98329775,0.0002666,69.9996,64.018,264.0012,96.0844,0.00013641,1.535e-05,0.0,0 STARLINK-3060,1 49155U 21082AB  24018.53839390  .00001535  00000-0  13641-3 0  9994,2 49155  69.9996  64.0180 0002666 264.0012  96.0844 14.98329775131032,6950.194,96.107,573.912,570.206,0.0
49155.0,STARLINK-3060,PAYLOAD,2024-01-19 11:21:10,14.98328064,0.0002764,69.9996,61.6614,271.7238,88.3604,9.6738e-05,1.061e-05,0.0,0 STARLINK-3060,1 49155U 21082AB  24019.47303532  .00001061  00000-0  96738-4 0  9995,2 49155  69.9996  61.6614 0002764 271.7238  88.3604 14.98328064131174,6950.199,96.107,573.985,570.143,0.0
49155.0,STARLINK-3060,PAYLOAD,2024-01-19 12:57:18,14.98320407,0.0002726,69.9998,61.4932,271.4052,88.6794,0.00025433,2.942e-05,0.0,0 STARLINK-3060,1 49155U 21082AB  24019.53979660  .00002942  00000-0  25433-3 0  9995,2 49155  69.9998  61.4932 0002726 271.4052  88.6794 14.98320407131183,6950.223,96.108,573.982,570.193,0.0
49155.0,STARLINK-3060,PAYLOAD,2024-01-20 11:23:11,14.98329133,0.0002716,69.9998,59.1369,272.5563,87.5285,1.5112e-05,8.7e-07,0.0,0 STARLINK-3060,1 49155U 21082AB  24020.47443586  .00000087  00000-0  15112-4 0  9995,2 49155  69.9998  59.1369 0002716 272.5563  87.5285 14.98329133131323,6950.196,96.107,573.948,570.173,0.0
49155.0,STARLINK-3060,PAYLOAD,2024-01-20 12:59:19,14.9833015,0.0002716,69.9999,58.9687,273.0604,87.0244,2.7291e-05,2.33e-06,0.0,0 STARLINK-3060,1 49155U 21082AB  24020.54119500  .00000233  00000-0  27291-4 0  9993,2 49155  69.9999  58.9687 0002716 273.0604  87.0244 14.98330150131338,6950.192,96.107,573.945,570.17,0.0
49155.0,STARLINK-3060,PAYLOAD,2024-01-21 06:36:47,14.98329228,0.0002642,70.0,57.1176,265.2175,94.8682,3.6396e-05,3.41e-06,0.0,0 STARLINK-3060,1 49155U 21082AB  24021.27555491  .00000341  00000-0  36396-4 0  9993,2 49155  70.0000  57.1176 0002642 265.2175  94.8682 14.98329228131440,6950.195,96.107,573.897,570.224,0.0
49155.0,STARLINK-3060,PAYLOAD,2024-01-21 11:25:12,14.98328157,0.0002661,70.0,56.6126,265.8816,94.2039,2.1984e-05,1.69e-06,0.0,0 STARLINK-3060,1 49155U 21082AB  24021.47583623  .00000169  00000-0  21984-4 0  9998,2 49155  70.0000  56.6126 0002661 265.8816  94.2039 14.98328157131471,6950.199,96.107,573.913,570.214,0.0
49155.0,STARLINK-3060,PAYLOAD,2024-01-22 06:38:48,14.98330372,0.0002736,69.9999,54.5928,264.9077,95.1769,6.1926e-05,6.46e-06,0.0,0 STARLINK-3060,1 49155U 21082AB  24022.27695370  .00000646  00000-0  61926-4 0  9990,2 49155  69.9999  54.5928 0002736 264.9077  95.1769 14.98330372131599,6950.192,96.107,573.958,570.155,0.0
49155.0,STARLINK-3060,PAYLOAD,2024-01-22 11:27:13,14.98330893,0.0002829,69.9997,54.0873,271.0451,89.0384,5.3847e-05,5.5e-06,0.0,0 STARLINK-3060,1 49155U 21082AB  24022.47723390  .00000550  00000-0  53847-4 0  9993,2 49155  69.9997  54.0873 0002829 271.0451  89.0384 14.98330893131626,6950.19,96.107,574.021,570.089,0.0
49155.0,STARLINK-3060,PAYLOAD,2024-01-23 06:40:49,14.98330775,0.0002898,69.9996,52.0672,270.2852,89.7975,4.5401e-05,4.49e-06,0.0,0 STARLINK-3060,1 49155U 21082AB  24023.27835382  .00000449  00000-0  45401-4 0  9991,2 49155  69.9996  52.0672 0002898 270.2852  89.7975 14.98330775131747,6950.19,96.107,574.07,570.041,0.0
